{
  "fetched_at": "2026-04-26T13:06:19.960552+00:00",
  "satellites": {
    "57166": {
      "name": "Meteor M2-3",
      "tle_line1": "1 57166U 23091A   26115.96377630 -.00000006  00000+0  16423-4 0  9992",
      "tle_line2": "2 57166  98.6131 171.9995 0003294 338.5408  21.5633 14.24042152147080"
    },
    "59051": {
      "name": "Meteor M2-4",
      "tle_line1": "1 59051U 24039A   26115.91921950  .00000025  00000+0  30948-4 0  9993",
      "tle_line2": "2 59051  98.6975  75.8860 0006488 329.8392  30.2412 14.22423888111830"
    },
    "38771": {
      "name": "MetOp-B",
      "tle_line1": "1 38771U 12049A   26115.88870630  .00000094  00000+0  62773-4 0  9998",
      "tle_line2": "2 38771  98.6550 168.4200 0003383 125.1604 234.9891 14.21432962705831"
    },
    "43689": {
      "name": "MetOp-C",
      "tle_line1": "1 43689U 18087A   26115.91074931  .00000093  00000+0  62337-4 0  9999",
      "tle_line2": "2 43689  98.6680 176.4605 0000861  40.6957 319.4284 14.21511580387405"
    }
  }
}